$$SOE
2460728.500000000, A.D. 2025-Feb-22 00:00:00.0000, -2.501627098176173E+08, -4.178373167703249E+08, 7.782672834862053E+07,
2460735.500000000, A.D. 2025-Mar-01 00:00:00.0000, -2.415943128696662E+08, -4.230038689521587E+08, 7.670230126842834E+07,
2460742.500000000, A.D. 2025-Mar-08 00:00:00.0000, -2.329281133259556E+08, -4.279992556047648E+08, 7.554682424518792E+07,
2460749.500000000, A.D. 2025-Mar-15 00:00:00.0000, -2.241675934660609E+08, -4.328214128624115E+08, 7.436075769344935E+07,
2460756.500000000, A.D. 2025-Mar-22 00:00:00.0000, -2.153162798633211E+08, -4.374683503597537E+08, 7.314457597922641E+07,
2460763.500000000, A.D. 2025-Mar-29 00:00:00.0000, -2.063777424569410E+08, -4.419381541435909E+08, 7.189876712031822E+07,
2460770.500000000, A.D. 2025-Apr-05 00:00:00.0000, -1.973555918998716E+08, -4.462289886534417E+08, 7.062383239542127E+07,
2460777.500000000, A.D. 2025-Apr-12 00:00:00.0000, -1.882534771107245E+08, -4.503390976659468E+08, 6.932028604731375E+07,
2460784.500000000, A.D. 2025-Apr-19 00:00:00.0000, -1.790750832190439E+08, -4.542668050828774E+08, 6.798865502520216E+07,
2460791.500000000, A.D. 2025-Apr-26 00:00:00.0000, -1.698241296342735E+08, -4.580105157639185E+08, 6.662947872454844E+07,
2460798.500000000, A.D. 2025-May-03 00:00:00.0000, -1.605043681265501E+08, -4.615687163830218E+08, 6.524330871528557E+07,
2460805.500000000, A.D. 2025-May-10 00:00:00.0000, -1.511195808922819E+08, -4.649399762976449E+08, 6.383070845627606E+07,
2460812.500000000, A.D. 2025-May-17 00:00:00.0000, -1.416735785690368E+08, -4.681229484701415E+08, 6.239225298913936E+07,
2460819.500000000, A.D. 2025-May-24 00:00:00.0000, -1.321701980268821E+08, -4.711163704946012E+08, 6.092852859105624E+07,
2460826.500000000, A.D. 2025-May-31 00:00:00.0000, -1.226132995196526E+08, -4.739190654177785E+08, 5.944013237390307E+07,
2460833.500000000, A.D. 2025-Jun-07 00:00:00.0000, -1.130067635988961E+08, -4.765299411492726E+08, 5.792767196538517E+07,
2460840.500000000, A.D. 2025-Jun-14 00:00:00.0000, -1.033544901570863E+08, -4.789479891272485E+08, 5.639176543491045E+07,
2460847.500000000, A.D. 2025-Jun-21 00:00:00.0000, -9.366039838499655E+07, -4.811722855104495E+08, 5.483304108555163E+07,
2460854.500000000, A.D. 2025-Jun-28 00:00:00.0000, -8.392842451680501E+07, -4.832019931321421E+08, 5.325213696991338E+07,
2460861.500000000, A.D. 2025-Jul-05 00:00:00.0000, -7.416251888185157E+07, -4.850363620598451E+08, 5.164970044586405E+07,
2460868.500000000, A.D. 2025-Jul-12 00:00:00.0000, -6.436664345618882E+07, -4.866747295659510E+08, 5.002638781604692E+07,
2460875.500000000, A.D. 2025-Jul-19 00:00:00.0000, -5.454476972635476E+07, -4.881165200839362E+08, 4.838286398719290E+07,
2460882.500000000, A.D. 2025-Jul-26 00:00:00.0000, -4.470087665735485E+07, -4.893612452063727E+08, 4.671980212572467E+07,
2460889.500000000, A.D. 2025-Aug-02 00:00:00.0000, -3.483894870123830E+07, -4.904085037028234E+08, 4.503788330578378E+07,
2460896.500000000, A.D. 2025-Aug-09 00:00:00.0000, -2.496297382450930E+07, -4.912579815722277E+08, 4.333779614677462E+07,
2460903.500000000, A.D. 2025-Aug-16 00:00:00.0000, -1.507694147917988E+07, -4.919094521932869E+08, 4.162023642876163E+07,
2460910.500000000, A.D. 2025-Aug-23 00:00:00.0000, -5.184840226788627E+06, -4.923627765567808E+08, 3.988590666086325E+07,
2460917.500000000, A.D. 2025-Aug-30 00:00:00.0000, 4.709345311445519E+06, -4.926179028661669E+08, 3.813551563146418E+07,
2460924.500000000, A.D. 2025-Sep-06 00:00:00.0000, 1.460163675801985E+07, -4.926748645062035E+08, 3.636977815262431E+07,
2460931.500000000, A.D. 2025-Sep-13 00:00:00.0000, 2.448806186352805E+07, -4.925337788618306E+08, 3.458941494941974E+07,
2460938.500000000, A.D. 2025-Sep-20 00:00:00.0000, 3.436465524414467E+07, -4.921948486315748E+08, 3.279515226004499E+07,
2460945.500000000, A.D. 2025-Sep-27 00:00:00.0000, 4.422746102953767E+07, -4.916583625250105E+08, 3.098772130452842E+07,
2460952.500000000, A.D. 2025-Oct-04 00:00:00.0000, 5.407253540278816E+07, -4.909246948061740E+08, 2.916785785174638E+07,
2460959.500000000, A.D. 2025-Oct-11 00:00:00.0000, 6.389594865686497E+07, -4.899943046265923E+08, 2.733630184243682E+07,
2460966.500000000, A.D. 2025-Oct-18 00:00:00.0000, 7.369378704959941E+07, -4.888677354227894E+08, 2.549379702014053E+07,
2460973.500000000, A.D. 2025-Oct-25 00:00:00.0000, 8.346215459503509E+07, -4.875456143675601E+08, 2.364109055843636E+07,
2460980.500000000, A.D. 2025-Nov-01 00:00:00.0000, 9.319717482912146E+07, -4.860286518596863E+08, 2.177893268228108E+07,
2460987.500000000, A.D. 2025-Nov-08 00:00:00.0000, 1.028949925831433E+08, -4.843176410838165E+08, 1.990807627784675E+07,
2460994.500000000, A.D. 2025-Nov-15 00:00:00.0000, 1.125517759117650E+08, -4.824134576998523E+08, 1.802927647267941E+07,
2461001.500000000, A.D. 2025-Nov-22 00:00:00.0000, 1.221637185772804E+08, -4.803170594430390E+08, 1.614329016744864E+07,
2461008.500000000, A.D. 2025-Nov-29 00:00:00.0000, 1.317270429354458E+08, -4.780294845012311E+08, 1.425087562630743E+07,
2461015.500000000, A.D. 2025-Dec-06 00:00:00.0000, 1.412380009437400E+08, -4.755518488062717E+08, 1.235279232374838E+07,
2461022.500000000, A.D. 2025-Dec-13 00:00:00.0000, 1.506928737242903E+08, -4.728853456099392E+08, 1.044980073276103E+07,
2461029.500000000, A.D. 2025-Dec-20 00:00:00.0000, 1.600879731739651E+08, -4.700312463220491E+08, 8.542661817627132E+06,
2461036.500000000, A.D. 2025-Dec-27 00:00:00.0000, 1.694196445469334E+08, -4.669909000211375E+08, 6.632136541903734E+06,
2461043.500000000, A.D. 2026-Jan-03 00:00:00.0000, 1.786842685488857E+08, -4.637657322545595E+08, 4.718985475436896E+06,
2461050.500000000, A.D. 2026-Jan-10 00:00:00.0000, 1.878782630508308E+08, -4.603572438071992E+08, 2.803968435132325E+06,
2461057.500000000, A.D. 2026-Jan-17 00:00:00.0000, 1.969980846533589E+08, -4.567670095298437E+08, 8.878441309317648E+05,
2461064.500000000, A.D. 2026-Jan-24 00:00:00.0000, 2.060402301782156E+08, -4.529966772036119E+08, -1.028630188021272E+06,
2461071.500000000, A.D. 2026-Jan-31 00:00:00.0000, 2.150012381103649E+08, -4.490479664470695E+08, -2.944699089480639E+06,
2461078.500000000, A.D. 2026-Feb-07 00:00:00.0000, 2.238776900525371E+08, -4.449226677234315E+08, -4.859609326432288E+06,
2461085.500000000, A.D. 2026-Feb-14 00:00:00.0000, 2.326662124460547E+08, -4.406226414644746E+08, -6.772610241708159E+06,
2461092.500000000, A.D. 2026-Feb-21 00:00:00.0000, 2.413634789457881E+08, -4.361498167365475E+08, -8.682954196821719E+06,
2461099.500000000, A.D. 2026-Feb-28 00:00:00.0000, 2.499662123637050E+08, -4.315061882978550E+08, -1.058989683087441E+07,
2461106.500000000, A.D. 2026-Mar-07 00:00:00.0000, 2.584711841208473E+08, -4.266938139985642E+08, -1.249269711982214E+07,
2461113.500000000, A.D. 2026-Mar-14 00:00:00.0000, 2.668752139821211E+08, -4.217148148567093E+08, -1.439061768114921E+07,
2461120.500000000, A.D. 2026-Mar-21 00:00:00.0000, 2.751751718565776E+08, -4.165713749126549E+08, -1.628292525039971E+07,
2461127.500000000, A.D. 2026-Mar-28 00:00:00.0000, 2.833679796537852E+08, -4.112657398350587E+08, -1.816889106089860E+07,
2461134.500000000, A.D. 2026-Apr-04 00:00:00.0000, 2.914506125923245E+08, -4.058002152455384E+08, -2.004779114988706E+07,
2461141.500000000, A.D. 2026-Apr-11 00:00:00.0000, 2.994201002340900E+08, -4.001771651233855E+08, -2.191890664528206E+07,
2461148.500000000, A.D. 2026-Apr-18 00:00:00.0000, 3.072735274035945E+08, -3.943990102984195E+08, -2.378152404788408E+07,
2461155.500000000, A.D. 2026-Apr-25 00:00:00.0000, 3.150080350380836E+08, -3.884682270186534E+08, -2.563493551170996E+07,
2461162.500000000, A.D. 2026-May-02 00:00:00.0000, 3.226208209991387E+08, -3.823873456235562E+08, -2.747843912738287E+07,
2461169.500000000, A.D. 2026-May-09 00:00:00.0000, 3.301091409705758E+08, -3.761589493899783E+08, -2.931133922514348E+07,
2461176.500000000, A.D. 2026-May-16 00:00:00.0000, 3.374703098213796E+08, -3.697856734133229E+08, -3.113294672060199E+07,
2461183.500000000, A.D. 2026-May-23 00:00:00.0000, 3.447017034867119E+08, -3.632702025033059E+08, -3.294257942426254E+07,
2461190.500000000, A.D. 2026-May-30 00:00:00.0000, 3.518007592891819E+08, -3.566152677770730E+08, -3.473956209800360E+07,
2461197.500000000, A.D. 2026-Jun-06 00:00:00.0000, 3.587649743825511E+08, -3.498236452246295E+08, -3.652322649694683E+07,
2461204.500000000, A.D. 2026-Jun-13 00:00:00.0000, 3.655919059835240E+08, -3.428981560478943E+08, -3.829291171674761E+07,
2461211.500000000, A.D. 2026-Jun-20 00:00:00.0000, 3.722791728913723E+08, -3.358416658481297E+08, -4.004796456137283E+07,
2461218.500000000, A.D. 2026-Jun-27 00:00:00.0000, 3.788244565978718E+08, -3.286570830031552E+08, -4.178773980360183E+07,
2461225.500000000, A.D. 2026-Jul-04 00:00:00.0000, 3.852255019880059E+08, -3.213473570106932E+08, -4.351160040184614E+07,
2461232.500000000, A.D. 2026-Jul-11 00:00:00.0000, 3.914801178858703E+08, -3.139154769310610E+08, -4.521891770765015E+07,
2461239.500000000, A.D. 2026-Jul-18 00:00:00.0000, 3.975861775390031E+08, -3.063644699047665E+08, -4.690907167057468E+07,
2461246.500000000, A.D. 2026-Jul-25 00:00:00.0000, 4.035416190659743E+08, -2.986973997435917E+08, -4.858145104275240E+07,
2461253.500000000, A.D. 2026-Aug-01 00:00:00.0000, 4.093444459154380E+08, -2.909173656444141E+08, -5.023545359167419E+07,
2461260.500000000, A.D. 2026-Aug-08 00:00:00.0000, 4.149927275514848E+08, -2.830275010622877E+08, -5.187048634395611E+07,
2461267.500000000, A.D. 2026-Aug-15 00:00:00.0000, 4.204846007808490E+08, -2.750309722927257E+08, -5.348596586140026E+07,
2461274.500000000, A.D. 2026-Aug-22 00:00:00.0000, 4.258182709623125E+08, -2.669309755429247E+08, -5.508131837983881E+07,
2461281.500000000, A.D. 2026-Aug-29 00:00:00.0000, 4.309920108100967E+08, -2.587307338665559E+08, -5.665597971312398E+07,
2461288.500000000, A.D. 2026-Sep-05 00:00:00.0000, 4.360041589241749E+08, -2.504334968312320E+08, -5.820939535229455E+07,
2461295.500000000, A.D. 2026-Sep-12 00:00:00.0000, 4.408531205018833E+08, -2.420425404228545E+08, -5.974102078095871E+07,
$$EOE